{"type": "FeatureCollection", "crs": {"type": "name", "properties": {"name": "urn:ogc:def:crs:OGC:1.3:CRS84"}}, "features": [{"type": "Feature", "properties": {"name": "Kupang", "type": "city", "population": 0, "country": "Indonesia", "osm_id": 262314145, "lat": -10.163221, "lon": 123.601776}, "geometry": {"type": "Point", "coordinates": [123.601776, -10.163221]}}, {"type": "Feature", "properties": {"name": "Ende", "type": "city", "population": 60000, "country": "Indonesia", "osm_id": 264994734, "lat": -8.843915, "lon": 121.647964}, "geometry": {"type": "Point", "coordinates": [121.647964, -8.843915]}}, {"type": "Feature", "properties": {"name": "Bajawa", "type": "city", "population": 40000, "country": "Indonesia", "osm_id": 375735682, "lat": -8.786726, "lon": 120.973626}, "geometry": {"type": "Point", "coordinates": [120.973626, -8.786726]}}, {"type": "Feature", "properties": {"name": "Praya", "type": "city", "population": 0, "country": "Indonesia", "osm_id": 413460775, "lat": -8.716183, "lon": 116.279271}, "geometry": {"type": "Point", "coordinates": [116.279271, -8.716183]}}, {"type": "Feature", "properties": {"name": "Denpasar", "type": "city", "population": 0, "country": "Indonesia", "osm_id": 274113797, "lat": -8.652803, "lon": 115.219926}, "geometry": {"type": "Point", "coordinates": [115.219926, -8.652803]}}, {"type": "Feature", "properties": {"name": "Sukawati", "type": "city", "population": 0, "country": "Indonesia", "osm_id": 314936180, "lat": -8.598565, "lon": 115.282122}, "geometry": {"type": "Point", "coordinates": [115.282122, -8.598565]}}, {"type": "Feature", "properties": {"name": "Semarapura (Klungklung)", "type": "city", "population": 0, "country": "Indonesia", "osm_id": 314936121, "lat": -8.535738, "lon": 115.404156}, "geometry": {"type": "Point", "coordinates": [115.404156, -8.535738]}}, {"type": "Feature", "properties": {"name": "Yogyakarta", "type": "city", "population": 0, "country": "Indonesia", "osm_id": 59080335, "lat": -7.787198, "lon": 110.376452}, "geometry": {"type": "Point", "coordinates": [110.376452, -7.787198]}}, {"type": "Feature", "properties": {"name": "Surakarta", "type": "city", "population": 0, "country": "Indonesia", "osm_id": 260119406, "lat": -7.565294, "lon": 110.816213}, "geometry": {"type": "Point", "coordinates": [110.816213, -7.565294]}}, {"type": "Feature", "properties": {"name": "Surabaya", "type": "city", "population": 0, "country": "Indonesia", "osm_id": 116242444, "lat": -7.244597, "lon": 112.744794}, "geometry": {"type": "Point", "coordinates": [112.744794, -7.244597]}}, {"type": "Feature", "properties": {"name": "Garut", "type": "city", "population": 0, "country": "Indonesia", "osm_id": 311411285, "lat": -7.215355, "lon": 107.902535}, "geometry": {"type": "Point", "coordinates": [107.902535, -7.215355]}}, {"type": "Feature", "properties": {"name": "Semarang", "type": "city", "population": 0, "country": "Indonesia", "osm_id": 256555232, "lat": -6.968938, "lon": 110.423109}, "geometry": {"type": "Point", "coordinates": [110.423109, -6.968938]}}, {"type": "Feature", "properties": {"name": "Bandung", "type": "city", "population": 0, "country": "Indonesia", "osm_id": 264158895, "lat": -6.922048, "lon": 107.606531}, "geometry": {"type": "Point", "coordinates": [107.606531, -6.922048]}}, {"type": "Feature", "properties": {"name": "Sukabumi", "type": "city", "population": 0, "country": "Indonesia", "osm_id": 306346868, "lat": -6.920463, "lon": 106.928387}, "geometry": {"type": "Point", "coordinates": [106.928387, -6.920463]}}, {"type": "Feature", "properties": {"name": "Cimahi", "type": "city", "population": 0, "country": "Indonesia", "osm_id": 305875103, "lat": -6.884249, "lon": 107.536979}, "geometry": {"type": "Point", "coordinates": [107.536979, -6.884249]}}, {"type": "Feature", "properties": {"name": "Padalarang", "type": "city", "population": 0, "country": "Indonesia", "osm_id": 306307317, "lat": -6.839851, "lon": 107.487831}, "geometry": {"type": "Point", "coordinates": [107.487831, -6.839851]}}, {"type": "Feature", "properties": {"name": "Cianjur", "type": "city", "population": 0, "country": "Indonesia", "osm_id": 306313560, "lat": -6.820762, "lon": 107.139187}, "geometry": {"type": "Point", "coordinates": [107.139187, -6.820762]}}, {"type": "Feature", "properties": {"name": "Lembang", "type": "city", "population": 0, "country": "Indonesia", "osm_id": 306106247, "lat": -6.814626, "lon": 107.617478}, "geometry": {"type": "Point", "coordinates": [107.617478, -6.814626]}}, {"type": "Feature", "properties": {"name": "Bogor", "type": "city", "population": 0, "country": "Indonesia", "osm_id": 319887585, "lat": -6.596539, "lon": 106.797441}, "geometry": {"type": "Point", "coordinates": [106.797441, -6.596539]}}, {"type": "Feature", "properties": {"name": "Pamanukan", "type": "city", "population": 0, "country": "Indonesia", "osm_id": 307904188, "lat": -6.284492, "lon": 107.828087}, "geometry": {"type": "Point", "coordinates": [107.828087, -6.284492]}}, {"type": "Feature", "properties": {"name": "Jakarta", "type": "city", "population": 12000000, "country": "Indonesia", "osm_id": 29939632, "lat": -6.180921, "lon": 106.828467}, "geometry": {"type": "Point", "coordinates": [106.828467, -6.180921]}}, {"type": "Feature", "properties": {"name": "Makassar", "type": "city", "population": 1130384, "country": "Indonesia", "osm_id": 297406682, "lat": -5.134569, "lon": 119.412391}, "geometry": {"type": "Point", "coordinates": [119.412391, -5.134569]}}, {"type": "Feature", "properties": {"name": "Ambon", "type": "city", "population": 275888, "country": "Indonesia", "osm_id": 293644383, "lat": -3.696638, "lon": 128.178639}, "geometry": {"type": "Point", "coordinates": [128.178638, -3.696638]}}, {"type": "Feature", "properties": {"name": "Palembang", "type": "city", "population": 0, "country": "Indonesia", "osm_id": 339259066, "lat": -2.989829, "lon": 104.759463}, "geometry": {"type": "Point", "coordinates": [104.759463, -2.989829]}}, {"type": "Feature", "properties": {"name": "Jayapura", "type": "city", "population": 0, "country": "Indonesia", "osm_id": 299630323, "lat": -2.542038, "lon": 140.703622}, "geometry": {"type": "Point", "coordinates": [140.703622, -2.542038]}}, {"type": "Feature", "properties": {"name": "Padang", "type": "city", "population": 0, "country": "Indonesia", "osm_id": 317887876, "lat": -0.952244, "lon": 100.362617}, "geometry": {"type": "Point", "coordinates": [100.362617, -0.952244]}}, {"type": "Feature", "properties": {"name": "Palu", "type": "city", "population": 270000, "country": "Indonesia", "osm_id": 296110116, "lat": -0.895779, "lon": 119.867997}, "geometry": {"type": "Point", "coordinates": [119.867997, -0.895779]}}, {"type": "Feature", "properties": {"name": "Pekanbaru", "type": "city", "population": 0, "country": "Indonesia", "osm_id": 336641647, "lat": 0.538078, "lon": 101.44614}, "geometry": {"type": "Point", "coordinates": [101.44614, 0.538078]}}, {"type": "Feature", "properties": {"name": "Singapore", "type": "country", "population": 4839400, "country": "Singapore", "osm_id": 31737795, "lat": 1.357168, "lon": 103.819538}, "geometry": {"type": "Point", "coordinates": [103.819538, 1.357168]}}, {"type": "Feature", "properties": {"name": "Johor Bahru", "type": "city", "population": 0, "country": "Malaysia", "osm_id": 254237831, "lat": 1.495304, "lon": 103.755084}, "geometry": {"type": "Point", "coordinates": [103.755084, 1.495304]}}, {"type": "Feature", "properties": {"name": "Muar", "type": "county", "population": 0, "country": "Malaysia", "osm_id": 168605324, "lat": 2.054081, "lon": 102.57701}, "geometry": {"type": "Point", "coordinates": [102.57701, 2.054081]}}, {"type": "Feature", "properties": {"name": "Bandar Melaka", "type": "city", "population": 455300, "country": "Malaysia", "osm_id": 321322622, "lat": 2.190818, "lon": 102.255926}, "geometry": {"type": "Point", "coordinates": [102.255926, 2.190818]}}, {"type": "Feature", "properties": {"name": "Ledang", "type": "county", "population": 0, "country": "Malaysia", "osm_id": 340454800, "lat": 2.232653, "lon": 102.522862}, "geometry": {"type": "Point", "coordinates": [102.522862, 2.232653]}}, {"type": "Feature", "properties": {"name": "Kuala Lumpur", "type": "city", "population": 0, "country": "Malaysia", "osm_id": 28918044, "lat": 3.157575, "lon": 101.700783}, "geometry": {"type": "Point", "coordinates": [101.700783, 3.157575]}}, {"type": "Feature", "properties": {"name": "Tebing Tinggi", "type": "city", "population": 0, "country": "Indonesia", "osm_id": 342092420, "lat": 3.327369, "lon": 99.162299}, "geometry": {"type": "Point", "coordinates": [99.162299, 3.327369]}}, {"type": "Feature", "properties": {"name": "Medan", "type": "city", "population": 0, "country": "Indonesia", "osm_id": 267554214, "lat": 3.589974, "lon": 98.673867}, "geometry": {"type": "Point", "coordinates": [98.673867, 3.589974]}}, {"type": "Feature", "properties": {"name": "Brunei Darussalam", "type": "country", "population": 0, "country": "Brunei Darussalam", "osm_id": 249399293, "lat": 4.416136, "lon": 114.564173}, "geometry": {"type": "Point", "coordinates": [114.564173, 4.416136]}}, {"type": "Feature", "properties": {"name": "Malaysia", "type": "country", "population": 0, "country": "Malaysia", "osm_id": 249399394, "lat": 4.569348, "lon": 102.2657}, "geometry": {"type": "Point", "coordinates": [102.2657, 4.569348]}}, {"type": "Feature", "properties": {"name": "Ipoh", "type": "city", "population": 0, "country": "Malaysia", "osm_id": 294039311, "lat": 4.591, "lon": 101.082785}, "geometry": {"type": "Point", "coordinates": [101.082785, 4.591]}}, {"type": "Feature", "properties": {"name": "Bandar Seri Begawan", "type": "city", "population": 0, "country": "Brunei Darussalam", "osm_id": 369490763, "lat": 4.902477, "lon": 114.953001}, "geometry": {"type": "Point", "coordinates": [114.953001, 4.902477]}}, {"type": "Feature", "properties": {"name": "Banda Aceh", "type": "city", "population": 0, "country": "Indonesia", "osm_id": 267556063, "lat": 5.555408, "lon": 95.314609}, "geometry": {"type": "Point", "coordinates": [95.314609, 5.555408]}}, {"type": "Feature", "properties": {"name": "General Santos City", "type": "city", "population": 0, "country": "Philippines", "osm_id": 333460805, "lat": 6.112547, "lon": 125.17269}, "geometry": {"type": "Point", "coordinates": [125.17269, 6.112547]}}, {"type": "Feature", "properties": {"name": "Kota Bahru", "type": "city", "population": 0, "country": "Malaysia", "osm_id": 207539450, "lat": 6.117816, "lon": 102.239582}, "geometry": {"type": "Point", "coordinates": [102.239582, 6.117816]}}, {"type": "Feature", "properties": {"name": "Alor Star", "type": "city", "population": 0, "country": "Malaysia", "osm_id": 295037382, "lat": 6.123191, "lon": 100.368396}, "geometry": {"type": "Point", "coordinates": [100.368396, 6.123191]}}, {"type": "Feature", "properties": {"name": "\u0e22\u0e30\u0e25\u0e32", "type": "city", "population": 0, "country": "Thailand", "osm_id": 372812084, "lat": 6.548216, "lon": 101.289495}, "geometry": {"type": "Point", "coordinates": [101.289495, 6.548216]}}, {"type": "Feature", "properties": {"name": "Digos City", "type": "city", "population": 0, "country": "Philippines", "osm_id": 198497618, "lat": 6.747635, "lon": 125.357745}, "geometry": {"type": "Point", "coordinates": [125.357745, 6.747635]}}, {"type": "Feature", "properties": {"name": "Mati City", "type": "city", "population": 0, "country": "Philippines", "osm_id": 198507159, "lat": 6.916671, "lon": 126.149997}, "geometry": {"type": "Point", "coordinates": [126.149997, 6.916671]}}, {"type": "Feature", "properties": {"name": "\u0e2b\u0e32\u0e14\u0e43\u0e2b\u0e0d\u0e48", "type": "city", "population": 187920, "country": "Thailand", "osm_id": 297328621, "lat": 7.005822, "lon": 100.469267}, "geometry": {"type": "Point", "coordinates": [100.469267, 7.005822]}}, {"type": "Feature", "properties": {"name": "Kidapawan City", "type": "city", "population": 0, "country": "Philippines", "osm_id": 198512957, "lat": 7.0185, "lon": 125.091215}, "geometry": {"type": "Point", "coordinates": [125.091215, 7.0185]}}, {"type": "Feature", "properties": {"name": "Island Garden City of Samal", "type": "city", "population": 0, "country": "Philippines", "osm_id": 198525392, "lat": 7.083339, "lon": 125.75}, "geometry": {"type": "Point", "coordinates": [125.75, 7.083339]}}, {"type": "Feature", "properties": {"name": "Davao City", "type": "city", "population": 0, "country": "Philippines", "osm_id": 325091453, "lat": 7.097299, "lon": 125.599221}, "geometry": {"type": "Point", "coordinates": [125.599221, 7.097299]}}, {"type": "Feature", "properties": {"name": "\u0e2a\u0e07\u0e02\u0e25\u0e32", "type": "city", "population": 75048, "country": "Thailand", "osm_id": 297337782, "lat": 7.198482, "lon": 100.595953}, "geometry": {"type": "Point", "coordinates": [100.595953, 7.198482]}}, {"type": "Feature", "properties": {"name": "Cotabato City", "type": "city", "population": 0, "country": "Philippines", "osm_id": 244475001, "lat": 7.210187, "lon": 124.245051}, "geometry": {"type": "Point", "coordinates": [124.245051, 7.210187]}}, {"type": "Feature", "properties": {"name": "Panabo City", "type": "city", "population": 0, "country": "Philippines", "osm_id": 371274468, "lat": 7.300476, "lon": 125.682648}, "geometry": {"type": "Point", "coordinates": [125.682648, 7.300476]}}, {"type": "Feature", "properties": {"name": "Tagum City", "type": "city", "population": 0, "country": "Philippines", "osm_id": 371274506, "lat": 7.446962, "lon": 125.821136}, "geometry": {"type": "Point", "coordinates": [125.821136, 7.446962]}}, {"type": "Feature", "properties": {"name": "\u0e15\u0e23\u0e31\u0e07", "type": "city", "population": 0, "country": "Thailand", "osm_id": 372812229, "lat": 7.560733, "lon": 99.611502}, "geometry": {"type": "Point", "coordinates": [99.611502, 7.560733]}}, {"type": "Feature", "properties": {"name": "\u0e20\u0e39\u0e40\u0e01\u0e47\u0e15", "type": "city", "population": 75573, "country": "Thailand", "osm_id": 252057835, "lat": 7.888225, "lon": 98.391469}, "geometry": {"type": "Point", "coordinates": [98.391469, 7.888225]}}, {"type": "Feature", "properties": {"name": "Malaybalay", "type": "city", "population": 0, "country": "Philippines", "osm_id": 198503889, "lat": 8.162778, "lon": 125.177222}, "geometry": {"type": "Point", "coordinates": [125.177222, 8.162778]}}, {"type": "Feature", "properties": {"name": "\u0e19\u0e04\u0e23\u0e28\u0e23\u0e35\u0e18\u0e23\u0e23\u0e21\u0e23\u0e32\u0e0a", "type": "city", "population": 0, "country": "Thailand", "osm_id": 372813341, "lat": 8.431815, "lon": 99.963958}, "geometry": {"type": "Point", "coordinates": [99.963958, 8.431815]}}, {"type": "Feature", "properties": {"name": "Cagayan De Oro", "type": "city", "population": 0, "country": "Philippines", "osm_id": 282310507, "lat": 8.478952, "lon": 124.643237}, "geometry": {"type": "Point", "coordinates": [124.643237, 8.478952]}}, {"type": "Feature", "properties": {"name": "\u0e2a\u0e38\u0e23\u0e32\u0e29\u0e0e\u0e23\u0e4c\u0e18\u0e32\u0e19\u0e35", "type": "city", "population": 0, "country": "Thailand", "osm_id": 372813885, "lat": 9.141564, "lon": 99.329055}, "geometry": {"type": "Point", "coordinates": [99.329055, 9.141564]}}, {"type": "Feature", "properties": {"name": "C\u00e0 Mau", "type": "city", "population": 0, "country": "Vietnam", "osm_id": 369486925, "lat": 9.179001, "lon": 105.145482}, "geometry": {"type": "Point", "coordinates": [105.145482, 9.179001]}}, {"type": "Feature", "properties": {"name": "B\u1ea1c Li\u00eau", "type": "city", "population": 0, "country": "Vietnam", "osm_id": 369486941, "lat": 9.282488, "lon": 105.726068}, "geometry": {"type": "Point", "coordinates": [105.726068, 9.282488]}}, {"type": "Feature", "properties": {"name": "S\u00f3c Tr\u0103ng", "type": "city", "population": 0, "country": "Vietnam", "osm_id": 369487102, "lat": 9.605707, "lon": 105.969875}, "geometry": {"type": "Point", "coordinates": [105.969875, 9.605707]}}, {"type": "Feature", "properties": {"name": "Tagbilaran", "type": "city", "population": 0, "country": "Philippines", "osm_id": 250652000, "lat": 9.647575, "lon": 123.857777}, "geometry": {"type": "Point", "coordinates": [123.857777, 9.647575]}}, {"type": "Feature", "properties": {"name": "V\u1ecb Thanh", "type": "city", "population": 0, "country": "Vietnam", "osm_id": 369487024, "lat": 9.78045, "lon": 105.471835}, "geometry": {"type": "Point", "coordinates": [105.471835, 9.78045]}}, {"type": "Feature", "properties": {"name": "Surigao City", "type": "city", "population": 0, "country": "Philippines", "osm_id": 319858811, "lat": 9.786345, "lon": 125.485796}, "geometry": {"type": "Point", "coordinates": [125.485796, 9.786345]}}, {"type": "Feature", "properties": {"name": "Tr\u00e0 Vinh", "type": "city", "population": 0, "country": "Vietnam", "osm_id": 369486916, "lat": 9.939827, "lon": 106.333513}, "geometry": {"type": "Point", "coordinates": [106.333513, 9.939827]}}, {"type": "Feature", "properties": {"name": "\u0e23\u0e30\u0e19\u0e2d\u0e07", "type": "city", "population": 0, "country": "Thailand", "osm_id": 301181330, "lat": 9.960073, "lon": 98.623892}, "geometry": {"type": "Point", "coordinates": [98.623892, 9.960073]}}, {"type": "Feature", "properties": {"name": "R\u1ea1ch Gi\u00e1", "type": "city", "population": 0, "country": "Vietnam", "osm_id": 369487039, "lat": 10.019003, "lon": 105.082225}, "geometry": {"type": "Point", "coordinates": [105.082225, 10.019003]}}, {"type": "Feature", "properties": {"name": "C\u1ea7n Th\u01a1", "type": "city", "population": 0, "country": "Vietnam", "osm_id": 88969536, "lat": 10.032974, "lon": 105.780493}, "geometry": {"type": "Point", "coordinates": [105.780493, 10.032974]}}, {"type": "Feature", "properties": {"name": "C\u1ea7n Th\u01a1", "type": "city", "population": 0, "country": "Vietnam", "osm_id": 369487070, "lat": 10.036699, "lon": 105.781686}, "geometry": {"type": "Point", "coordinates": [105.781686, 10.036699]}}, {"type": "Feature", "properties": {"name": "B\u1ebfn Tre", "type": "city", "population": 0, "country": "Vietnam", "osm_id": 369487050, "lat": 10.244813, "lon": 106.373491}, "geometry": {"type": "Point", "coordinates": [106.373491, 10.244813]}}, {"type": "Feature", "properties": {"name": "V\u0129nh Long", "type": "city", "population": 0, "country": "Vietnam", "osm_id": 369487074, "lat": 10.250272, "lon": 105.974538}, "geometry": {"type": "Point", "coordinates": [105.974538, 10.250272]}}, {"type": "Feature", "properties": {"name": "Cebu City", "type": "city", "population": 0, "country": "Philippines", "osm_id": 259009337, "lat": 10.309673, "lon": 123.894402}, "geometry": {"type": "Point", "coordinates": [123.894402, 10.309673]}}, {"type": "Feature", "properties": {"name": "M\u1ef9 Tho", "type": "city", "population": 0, "country": "Vietnam", "osm_id": 369487081, "lat": 10.359535, "lon": 106.36732}, "geometry": {"type": "Point", "coordinates": [106.36732, 10.359535]}}, {"type": "Feature", "properties": {"name": "Long Xuy\u00ean", "type": "city", "population": 0, "country": "Vietnam", "osm_id": 369486944, "lat": 10.382155, "lon": 105.435566}, "geometry": {"type": "Point", "coordinates": [105.435566, 10.382155]}}, {"type": "Feature", "properties": {"name": "Cao L\u00e3nh", "type": "city", "population": 0, "country": "Vietnam", "osm_id": 369486911, "lat": 10.460797, "lon": 105.639266}, "geometry": {"type": "Point", "coordinates": [105.639266, 10.460797]}}, {"type": "Feature", "properties": {"name": "Bago City", "type": "city", "population": 0, "country": "Philippines", "osm_id": 391179918, "lat": 10.537566, "lon": 122.835744}, "geometry": {"type": "Point", "coordinates": [122.835744, 10.537566]}}, {"type": "Feature", "properties": {"name": "T\u00e2n An", "type": "city", "population": 0, "country": "Vietnam", "osm_id": 369487105, "lat": 10.543509, "lon": 106.405892}, "geometry": {"type": "Point", "coordinates": [106.405892, 10.543509]}}, {"type": "Feature", "properties": {"name": "\u1780\u17c6\u1796\u178f", "type": "city", "population": 0, "country": "Cambodia", "osm_id": 257885151, "lat": 10.610594, "lon": 104.179509}, "geometry": {"type": "Point", "coordinates": [104.179509, 10.610594]}}, {"type": "Feature", "properties": {"name": "Sihanoukville", "type": "city", "population": 0, "country": "Cambodia", "osm_id": 259119234, "lat": 10.622794, "lon": 103.522831}, "geometry": {"type": "Point", "coordinates": [103.522831, 10.622794]}}, {"type": "Feature", "properties": {"name": "Bacolod City", "type": "city", "population": 0, "country": "Philippines", "osm_id": 333551664, "lat": 10.688127, "lon": 122.964122}, "geometry": {"type": "Point", "coordinates": [122.964122, 10.688127]}}, {"type": "Feature", "properties": {"name": "Iloilo City", "type": "city", "population": 0, "country": "Philippines", "osm_id": 279220967, "lat": 10.712063, "lon": 122.559475}, "geometry": {"type": "Point", "coordinates": [122.559475, 10.712063]}}, {"type": "Feature", "properties": {"name": "Th\u00e0nh ph\u1ed1 H\u1ed3 Ch\u00ed Minh", "type": "city", "population": 0, "country": "Vietnam", "osm_id": 369486734, "lat": 10.782737, "lon": 106.694857}, "geometry": {"type": "Point", "coordinates": [106.694857, 10.782737]}}, {"type": "Feature", "properties": {"name": "Phan Thi\u1ebft", "type": "city", "population": 0, "country": "Vietnam", "osm_id": 369487079, "lat": 10.930879, "lon": 108.094485}, "geometry": {"type": "Point", "coordinates": [108.094485, 10.930879]}}, {"type": "Feature", "properties": {"name": "Bi\u00ean H\u00f2a", "type": "city", "population": 0, "country": "Vietnam", "osm_id": 369487019, "lat": 10.958706, "lon": 106.812656}, "geometry": {"type": "Point", "coordinates": [106.812656, 10.958706]}}, {"type": "Feature", "properties": {"name": "\u1780\u17d2\u179a\u17bb\u1784\u178f\u17b6\u1780\u17c2\u179c", "type": "city", "population": 0, "country": "Cambodia", "osm_id": 328850126, "lat": 10.981017, "lon": 104.779878}, "geometry": {"type": "Point", "coordinates": [104.779878, 10.981017]}}, {"type": "Feature", "properties": {"name": "Th\u1ee7 D\u1ea7u M\u1ed9t", "type": "city", "population": 0, "country": "Vietnam", "osm_id": 369487048, "lat": 10.991656, "lon": 106.651788}, "geometry": {"type": "Point", "coordinates": [106.651789, 10.991656]}}, {"type": "Feature", "properties": {"name": "Ormoc", "type": "city", "population": 0, "country": "Philippines", "osm_id": 279167983, "lat": 11.004455, "lon": 124.607506}, "geometry": {"type": "Point", "coordinates": [124.607506, 11.004455]}}, {"type": "Feature", "properties": {"name": "T\u00e2y Ninh", "type": "city", "population": 0, "country": "Vietnam", "osm_id": 369487072, "lat": 11.313779, "lon": 106.084666}, "geometry": {"type": "Point", "coordinates": [106.084666, 11.313779]}}, {"type": "Feature", "properties": {"name": "\u0110\u1ed3ng Xo\u00e0i", "type": "city", "population": 0, "country": "Vietnam", "osm_id": 369487065, "lat": 11.538958, "lon": 106.904738}, "geometry": {"type": "Point", "coordinates": [106.904738, 11.538958]}}, {"type": "Feature", "properties": {"name": "Phan Rang - Th\u00e1p Ch\u00e0m", "type": "city", "population": 0, "country": "Vietnam", "osm_id": 369486933, "lat": 11.576983, "lon": 108.986539}, "geometry": {"type": "Point", "coordinates": [108.986539, 11.576983]}}, {"type": "Feature", "properties": {"name": "\u1780\u17c4\u17c7\u1780\u17bb\u1784", "type": "city", "population": 0, "country": "Cambodia", "osm_id": 257901805, "lat": 11.628934, "lon": 102.947253}, "geometry": {"type": "Point", "coordinates": [102.947253, 11.628934]}}, {"type": "Feature", "properties": {"name": "\u0110\u00e0 L\u1ea1t", "type": "city", "population": 0, "country": "Vietnam", "osm_id": 369486906, "lat": 11.945099, "lon": 108.431119}, "geometry": {"type": "Point", "coordinates": [108.431119, 11.945099]}}, {"type": "Feature", "properties": {"name": "Gia Ngh\u0129a", "type": "city", "population": 0, "country": "Vietnam", "osm_id": 369487118, "lat": 11.989135, "lon": 107.70237}, "geometry": {"type": "Point", "coordinates": [107.70237, 11.989135]}}, {"type": "Feature", "properties": {"name": "Nha Trang", "type": "city", "population": 0, "country": "Vietnam", "osm_id": 259730355, "lat": 12.240766, "lon": 109.198393}, "geometry": {"type": "Point", "coordinates": [109.198393, 12.240767]}}, {"type": "Feature", "properties": {"name": "Nha Trang", "type": "city", "population": 0, "country": "Vietnam", "osm_id": 369487053, "lat": 12.243218, "lon": 109.189932}, "geometry": {"type": "Point", "coordinates": [109.189932, 12.243218]}}, {"type": "Feature", "properties": {"name": "Masbate", "type": "city", "population": 0, "country": "Philippines", "osm_id": 198515822, "lat": 12.333339, "lon": 123.583331}, "geometry": {"type": "Point", "coordinates": [123.583331, 12.333339]}}, {"type": "Feature", "properties": {"name": "\u179f\u17c2\u1793\u1798\u1793\u17c4\u179a\u1798\u17d2\u1799", "type": "city", "population": 0, "country": "Cambodia", "osm_id": 256993179, "lat": 12.461513, "lon": 107.191373}, "geometry": {"type": "Point", "coordinates": [107.191373, 12.461513]}}, {"type": "Feature", "properties": {"name": "\u1780\u17d2\u179a\u1785\u17c1\u17c7", "type": "city", "population": 0, "country": "Cambodia", "osm_id": 256993100, "lat": 12.531566, "lon": 106.005542}, "geometry": {"type": "Point", "coordinates": [106.005542, 12.531566]}}, {"type": "Feature", "properties": {"name": "Bu\u00f4n Ma Thu\u1ed9t", "type": "city", "population": 0, "country": "Vietnam", "osm_id": 369487014, "lat": 12.675522, "lon": 108.053693}, "geometry": {"type": "Point", "coordinates": [108.053693, 12.675523]}}, {"type": "Feature", "properties": {"name": "\u0e23\u0e30\u0e22\u0e2d\u0e07", "type": "city", "population": 0, "country": "Thailand", "osm_id": 372811021, "lat": 12.678889, "lon": 101.265682}, "geometry": {"type": "Point", "coordinates": [101.265682, 12.678889]}}, {"type": "Feature", "properties": {"name": "\u1780\u17c6\u1796\u1784\u17cb\u1792\u17c6", "type": "city", "population": 0, "country": "Cambodia", "osm_id": 256889019, "lat": 12.698162, "lon": 104.885924}, "geometry": {"type": "Point", "coordinates": [104.885924, 12.698162]}}, {"type": "Feature", "properties": {"name": "\u1796\u17c4\u1792\u17b7\u17cd\u179f\u17b6\u178f\u17cb", "type": "city", "population": 0, "country": "Cambodia", "osm_id": 257878058, "lat": 12.773255, "lon": 103.448394}, "geometry": {"type": "Point", "coordinates": [103.448394, 12.773255]}}, {"type": "Feature", "properties": {"name": "Tuy H\u00f2a", "type": "city", "population": 0, "country": "Vietnam", "osm_id": 369486928, "lat": 13.084163, "lon": 109.298496}, "geometry": {"type": "Point", "coordinates": [109.298496, 13.084163]}}, {"type": "Feature", "properties": {"name": "\u1794\u17b6\u178f\u17cb\u178a\u17c6\u1794\u1784", "type": "city", "population": 0, "country": "Cambodia", "osm_id": 256991275, "lat": 13.103092, "lon": 103.198343}, "geometry": {"type": "Point", "coordinates": [103.198343, 13.103092]}}, {"type": "Feature", "properties": {"name": "Viet Nam", "type": "country", "population": 0, "country": "Vietnam", "osm_id": 249399456, "lat": 13.290234, "lon": 108.425224}, "geometry": {"type": "Point", "coordinates": [108.425224, 13.290234]}}, {"type": "Feature", "properties": {"name": "\u179f\u17c0\u1798\u179a\u17b6\u1794", "type": "city", "population": 0, "country": "Cambodia", "osm_id": 257838557, "lat": 13.345242, "lon": 103.854168}, "geometry": {"type": "Point", "coordinates": [103.854168, 13.345242]}}, {"type": "Feature", "properties": {"name": "\u0e0a\u0e25\u0e1a\u0e38\u0e23\u0e35", "type": "city", "population": 0, "country": "Thailand", "osm_id": 366477502, "lat": 13.365843, "lon": 100.988962}, "geometry": {"type": "Point", "coordinates": [100.988962, 13.365843]}}, {"type": "Feature", "properties": {"name": "Cambodia", "type": "country", "population": 0, "country": "Cambodia", "osm_id": 249399358, "lat": 13.506581, "lon": 104.869504}, "geometry": {"type": "Point", "coordinates": [104.869504, 13.506581]}}, {"type": "Feature", "properties": {"name": "\u179f\u17d2\u1791\u17b9\u1784\u178f\u17d2\u179a\u17c2\u1784", "type": "city", "population": 0, "country": "Cambodia", "osm_id": 256842008, "lat": 13.524896, "lon": 105.960428}, "geometry": {"type": "Point", "coordinates": [105.960428, 13.524896]}}, {"type": "Feature", "properties": {"name": "\u0e2a\u0e21\u0e38\u0e17\u0e23\u0e2a\u0e32\u0e04\u0e23", "type": "city", "population": 0, "country": "Thailand", "osm_id": 372810213, "lat": 13.549778, "lon": 100.274281}, "geometry": {"type": "Point", "coordinates": [100.274281, 13.549778]}}, {"type": "Feature", "properties": {"name": "\u179f\u17b7\u179a\u17b8\u179f\u17c4\u1797\u17d0\u178e", "type": "city", "population": 0, "country": "Cambodia", "osm_id": 256990829, "lat": 13.575799, "lon": 102.928535}, "geometry": {"type": "Point", "coordinates": [102.928535, 13.575799]}}, {"type": "Feature", "properties": {"name": "\u0e2a\u0e21\u0e38\u0e17\u0e23\u0e1b\u0e23\u0e32\u0e01\u0e32\u0e23", "type": "city", "population": 0, "country": "Thailand", "osm_id": 304199925, "lat": 13.59648, "lon": 100.599704}, "geometry": {"type": "Point", "coordinates": [100.599704, 13.59648]}}, {"type": "Feature", "properties": {"name": "Naga", "type": "city", "population": 0, "country": "Philippines", "osm_id": 196960203, "lat": 13.624012, "lon": 123.185032}, "geometry": {"type": "Point", "coordinates": [123.185032, 13.624012]}}, {"type": "Feature", "properties": {"name": "\u1794\u17b6\u1793\u179b\u17bb\u1784", "type": "city", "population": 0, "country": "Cambodia", "osm_id": 257876211, "lat": 13.744303, "lon": 106.988362}, "geometry": {"type": "Point", "coordinates": [106.988362, 13.744303]}}, {"type": "Feature", "properties": {"name": "\u0e01\u0e23\u0e38\u0e07\u0e40\u0e17\u0e1e\u0e21\u0e2b\u0e32\u0e19\u0e04\u0e23", "type": "city", "population": 8600000, "country": "Thailand", "osm_id": 109776869, "lat": 13.752734, "lon": 100.494093}, "geometry": {"type": "Point", "coordinates": [100.494093, 13.752734]}}, {"type": "Feature", "properties": {"name": "Quy Nh\u01a1n", "type": "city", "population": 0, "country": "Vietnam", "osm_id": 369487010, "lat": 13.774272, "lon": 109.224227}, "geometry": {"type": "Point", "coordinates": [109.224227, 13.774272]}}, {"type": "Feature", "properties": {"name": "\u178f\u17d2\u1794\u17c2\u1784\u1798\u17b6\u1793\u1787\u17d0\u1799", "type": "city", "population": 0, "country": "Cambodia", "osm_id": 256992516, "lat": 13.802115, "lon": 104.976597}, "geometry": {"type": "Point", "coordinates": [104.976597, 13.802115]}}, {"type": "Feature", "properties": {"name": "\u0e19\u0e04\u0e23\u0e1b\u0e10\u0e21", "type": "city", "population": 0, "country": "Thailand", "osm_id": 360352320, "lat": 13.819819, "lon": 100.058385}, "geometry": {"type": "Point", "coordinates": [100.058385, 13.819819]}}, {"type": "Feature", "properties": {"name": "\u0e19\u0e19\u0e17\u0e1a\u0e38\u0e23\u0e35", "type": "city", "population": 0, "country": "Thailand", "osm_id": 359862014, "lat": 13.860855, "lon": 100.513339}, "geometry": {"type": "Point", "coordinates": [100.513339, 13.860855]}}, {"type": "Feature", "properties": {"name": "\u0e1b\u0e32\u0e01\u0e40\u0e01\u0e23\u0e47\u0e14", "type": "city", "population": 0, "country": "Thailand", "osm_id": 356814884, "lat": 13.912348, "lon": 100.497906}, "geometry": {"type": "Point", "coordinates": [100.497906, 13.912348]}}, {"type": "Feature", "properties": {"name": "Lucena City", "type": "city", "population": 0, "country": "Philippines", "osm_id": 272327246, "lat": 13.926042, "lon": 121.614187}, "geometry": {"type": "Point", "coordinates": [121.614187, 13.926042]}}, {"type": "Feature", "properties": {"name": "Lipa", "type": "city", "population": 0, "country": "Philippines", "osm_id": 273991971, "lat": 13.940105, "lon": 121.156936}, "geometry": {"type": "Point", "coordinates": [121.156936, 13.940105]}}, {"type": "Feature", "properties": {"name": "Pleiku", "type": "city", "population": 0, "country": "Vietnam", "osm_id": 369487091, "lat": 13.986261, "lon": 108.002702}, "geometry": {"type": "Point", "coordinates": [108.002702, 13.986261]}}, {"type": "Feature", "properties": {"name": "San Pablo", "type": "city", "population": 237259, "country": "Philippines", "osm_id": 269470262, "lat": 14.074585, "lon": 121.318264}, "geometry": {"type": "Point", "coordinates": [121.318264, 14.074584]}}, {"type": "Feature", "properties": {"name": "Tanauan", "type": "city", "population": 0, "country": "Philippines", "osm_id": 198523357, "lat": 14.078277, "lon": 121.119161}, "geometry": {"type": "Point", "coordinates": [121.119161, 14.078277]}}, {"type": "Feature", "properties": {"name": "Tagaytay", "type": "city", "population": 0, "country": "Philippines", "osm_id": 283347803, "lat": 14.114981, "lon": 120.963555}, "geometry": {"type": "Point", "coordinates": [120.963555, 14.114981]}}, {"type": "Feature", "properties": {"name": "\u17a2\u1793\u17d2\u179b\u1784\u17cb\u179c\u17c2\u1784", "type": "city", "population": 0, "country": "Cambodia", "osm_id": 257735781, "lat": 14.233068, "lon": 104.083823}, "geometry": {"type": "Point", "coordinates": [104.083823, 14.233068]}}, {"type": "Feature", "properties": {"name": "Trece Martires", "type": "city", "population": 0, "country": "Philippines", "osm_id": 255058930, "lat": 14.279821, "lon": 120.867187}, "geometry": {"type": "Point", "coordinates": [120.867187, 14.279821]}}, {"type": "Feature", "properties": {"name": "\u0e1e\u0e23\u0e30\u0e19\u0e04\u0e23\u0e28\u0e23\u0e35\u0e2d\u0e22\u0e38\u0e18\u0e22\u0e32", "type": "city", "population": 0, "country": "Thailand", "osm_id": 373164985, "lat": 14.356037, "lon": 100.572207}, "geometry": {"type": "Point", "coordinates": [100.572207, 14.356037]}}, {"type": "Feature", "properties": {"name": "Kon Tum", "type": "city", "population": 0, "country": "Vietnam", "osm_id": 369486909, "lat": 14.361669, "lon": 108.004125}, "geometry": {"type": "Point", "coordinates": [108.004125, 14.361669]}}, {"type": "Feature", "properties": {"name": "Manila", "type": "city", "population": 0, "country": "Philippines", "osm_id": 198493613, "lat": 14.62439, "lon": 120.978698}, "geometry": {"type": "Point", "coordinates": [120.978698, 14.62439]}}, {"type": "Feature", "properties": {"name": "Balanga City", "type": "city", "population": 0, "country": "Philippines", "osm_id": 198516371, "lat": 14.675712, "lon": 120.528477}, "geometry": {"type": "Point", "coordinates": [120.528477, 14.675712]}}, {"type": "Feature", "properties": {"name": "\u0e2a\u0e38\u0e23\u0e34\u0e19\u0e17\u0e23\u0e4c", "type": "city", "population": 40104, "country": "Thailand", "osm_id": 257904863, "lat": 14.884901, "lon": 103.493048}, "geometry": {"type": "Point", "coordinates": [103.493048, 14.884901]}}, {"type": "Feature", "properties": {"name": "Thailand", "type": "country", "population": 0, "country": "Thailand", "osm_id": 366853780, "lat": 14.897124, "lon": 100.832765}, "geometry": {"type": "Point", "coordinates": [100.832765, 14.897124]}}, {"type": "Feature", "properties": {"name": "\u0e19\u0e04\u0e23\u0e23\u0e32\u0e0a\u0e2a\u0e35\u0e21\u0e32", "type": "city", "population": 150768, "country": "Thailand", "osm_id": 257335975, "lat": 14.987063, "lon": 102.093247}, "geometry": {"type": "Point", "coordinates": [102.093247, 14.987063]}}, {"type": "Feature", "properties": {"name": "\u0e1a\u0e38\u0e23\u0e35\u0e23\u0e31\u0e21\u0e22\u0e4c", "type": "city", "population": 28333, "country": "Thailand", "osm_id": 257904596, "lat": 15.002326, "lon": 103.10269}, "geometry": {"type": "Point", "coordinates": [103.10269, 15.002326]}}, {"type": "Feature", "properties": {"name": "\u0e28\u0e23\u0e35\u0e2a\u0e30\u0e40\u0e01\u0e29", "type": "city", "population": 0, "country": "Thailand", "osm_id": 409686741, "lat": 15.116794, "lon": 104.332348}, "geometry": {"type": "Point", "coordinates": [104.332348, 15.116794]}}, {"type": "Feature", "properties": {"name": "Qu\u1ea3ng Ng\u00e3i", "type": "city", "population": 0, "country": "Vietnam", "osm_id": 369486914, "lat": 15.119115, "lon": 108.809701}, "geometry": {"type": "Point", "coordinates": [108.809701, 15.119115]}}, {"type": "Feature", "properties": {"name": "\u0e9b\u0eb2\u0e81\u0ec0\u0e8a", "type": "city", "population": 0, "country": "Laos DR", "osm_id": 133069982, "lat": 15.134564, "lon": 105.787453}, "geometry": {"type": "Point", "coordinates": [105.787453, 15.134564]}}, {"type": "Feature", "properties": {"name": "\u0e1e\u0e34\u0e21\u0e32\u0e22", "type": "city", "population": 0, "country": "Thailand", "osm_id": 257335981, "lat": 15.217679, "lon": 102.494244}, "geometry": {"type": "Point", "coordinates": [102.494244, 15.217679]}}, {"type": "Feature", "properties": {"name": "\u0e2d\u0e38\u0e1a\u0e25\u0e23\u0e32\u0e0a\u0e18\u0e32\u0e19\u0e35", "type": "city", "population": 106552, "country": "Thailand", "osm_id": 257905362, "lat": 15.227383, "lon": 104.858444}, "geometry": {"type": "Point", "coordinates": [104.858444, 15.227383]}}, {"type": "Feature", "properties": {"name": "\u0ec0\u0e8a\u0e81\u0ead\u0e87", "type": "city", "population": 0, "country": "Laos DR", "osm_id": 133072627, "lat": 15.347358, "lon": 106.726536}, "geometry": {"type": "Point", "coordinates": [106.726536, 15.347358]}}, {"type": "Feature", "properties": {"name": "\u0e2d\u0e38\u0e17\u0e31\u0e22\u0e18\u0e32\u0e19\u0e35", "type": "city", "population": 0, "country": "Thailand", "osm_id": 409983708, "lat": 15.366029, "lon": 100.050465}, "geometry": {"type": "Point", "coordinates": [100.050465, 15.366029]}}, {"type": "Feature", "properties": {"name": "Tarlac City", "type": "city", "population": 0, "country": "Philippines", "osm_id": 317950271, "lat": 15.490485, "lon": 120.592437}, "geometry": {"type": "Point", "coordinates": [120.592437, 15.490485]}}, {"type": "Feature", "properties": {"name": "Tam K\u1ef3", "type": "city", "population": 0, "country": "Vietnam", "osm_id": 369487017, "lat": 15.575659, "lon": 108.474343}, "geometry": {"type": "Point", "coordinates": [108.474343, 15.575659]}}, {"type": "Feature", "properties": {"name": "\u0e19\u0e04\u0e23\u0e2a\u0e27\u0e23\u0e23\u0e04\u0e4c", "type": "city", "population": 0, "country": "Thailand", "osm_id": 114123787, "lat": 15.697411, "lon": 100.125438}, "geometry": {"type": "Point", "coordinates": [100.125438, 15.697411]}}, {"type": "Feature", "properties": {"name": "\u0eaa\u0eb2\u0ea5\u0eb0\u0ea7\u0eb1\u0e99", "type": "city", "population": 0, "country": "Laos DR", "osm_id": 132731678, "lat": 15.718154, "lon": 106.423533}, "geometry": {"type": "Point", "coordinates": [106.423533, 15.718154]}}, {"type": "Feature", "properties": {"name": "\u0e22\u0e42\u0e2a\u0e18\u0e23", "type": "city", "population": 0, "country": "Thailand", "osm_id": 409691951, "lat": 15.795393, "lon": 104.149584}, "geometry": {"type": "Point", "coordinates": [104.149584, 15.795393]}}, {"type": "Feature", "properties": {"name": "\u0e0a\u0e31\u0e22\u0e20\u0e39\u0e21\u0e34", "type": "city", "population": 0, "country": "Thailand", "osm_id": 409694129, "lat": 15.799925, "lon": 102.034177}, "geometry": {"type": "Point", "coordinates": [102.034177, 15.799925]}}, {"type": "Feature", "properties": {"name": "\u0e2d\u0e33\u0e19\u0e32\u0e08\u0e40\u0e08\u0e23\u0e34\u0e0d", "type": "city", "population": 0, "country": "Thailand", "osm_id": 409647053, "lat": 15.850389, "lon": 104.63324}, "geometry": {"type": "Point", "coordinates": [104.63324, 15.850389]}}, {"type": "Feature", "properties": {"name": "Urdaneta City", "type": "city", "population": 0, "country": "Philippines", "osm_id": 30917625, "lat": 15.980914, "lon": 120.565997}, "geometry": {"type": "Point", "coordinates": [120.565997, 15.980914]}}, {"type": "Feature", "properties": {"name": "Dagupan City", "type": "city", "population": 0, "country": "Philippines", "osm_id": 317405147, "lat": 16.042371, "lon": 120.335285}, "geometry": {"type": "Point", "coordinates": [120.335285, 16.042371]}}, {"type": "Feature", "properties": {"name": "\u0e23\u0e49\u0e2d\u0e22\u0e40\u0e2d\u0e47\u0e14", "type": "city", "population": 0, "country": "Thailand", "osm_id": 409682242, "lat": 16.056247, "lon": 103.653095}, "geometry": {"type": "Point", "coordinates": [103.653095, 16.056247]}}, {"type": "Feature", "properties": {"name": "\u0110\u00e0 N\u1eb5ng", "type": "city", "population": 0, "country": "Vietnam", "osm_id": 369487028, "lat": 16.067981, "lon": 108.203163}, "geometry": {"type": "Point", "coordinates": [108.203163, 16.067981]}}, {"type": "Feature", "properties": {"name": "\u0e21\u0e2b\u0e32\u0e2a\u0e32\u0e23\u0e04\u0e32\u0e21", "type": "city", "population": 0, "country": "Thailand", "osm_id": 409666323, "lat": 16.185962, "lon": 103.294553}, "geometry": {"type": "Point", "coordinates": [103.294553, 16.185962]}}, {"type": "Feature", "properties": {"name": "Baguio City", "type": "city", "population": 0, "country": "Philippines", "osm_id": 317949374, "lat": 16.413702, "lon": 120.591492}, "geometry": {"type": "Point", "coordinates": [120.591492, 16.413702]}}, {"type": "Feature", "properties": {"name": "\u0e40\u0e1e\u0e0a\u0e23\u0e1a\u0e39\u0e23\u0e13\u0e4c", "type": "city", "population": 0, "country": "Thailand", "osm_id": 407997799, "lat": 16.418838, "lon": 101.160659}, "geometry": {"type": "Point", "coordinates": [101.160659, 16.418838]}}, {"type": "Feature", "properties": {"name": "\u0e01\u0e32\u0e2c\u0e2a\u0e34\u0e19\u0e18\u0e38\u0e4c", "type": "city", "population": 37653, "country": "Thailand", "osm_id": 257906398, "lat": 16.431637, "lon": 103.507124}, "geometry": {"type": "Point", "coordinates": [103.507124, 16.431637]}}, {"type": "Feature", "properties": {"name": "\u0e02\u0e2d\u0e19\u0e41\u0e01\u0e48\u0e19", "type": "city", "population": 0, "country": "Thailand", "osm_id": 369493329, "lat": 16.434026, "lon": 102.846174}, "geometry": {"type": "Point", "coordinates": [102.846174, 16.434026]}}, {"type": "Feature", "properties": {"name": "\u0e1e\u0e34\u0e08\u0e34\u0e15\u0e23", "type": "city", "population": 0, "country": "Thailand", "osm_id": 409975309, "lat": 16.438431, "lon": 100.370885}, "geometry": {"type": "Point", "coordinates": [100.370885, 16.438431]}}, {"type": "Feature", "properties": {"name": "Hu\u1ebf", "type": "city", "population": 0, "country": "Vietnam", "osm_id": 369487099, "lat": 16.461043, "lon": 107.598917}, "geometry": {"type": "Point", "coordinates": [107.598917, 16.461043]}}, {"type": "Feature", "properties": {"name": "\u0e01\u0e33\u0e41\u0e1e\u0e07\u0e40\u0e1e\u0e0a\u0e23", "type": "city", "population": 0, "country": "Thailand", "osm_id": 409704578, "lat": 16.474422, "lon": 99.49223}, "geometry": {"type": "Point", "coordinates": [99.49223, 16.474422]}}, {"type": "Feature", "properties": {"name": "\u0e21\u0e38\u0e01\u0e14\u0e32\u0e2b\u0e32\u0e23", "type": "city", "population": 0, "country": "Thailand", "osm_id": 409675713, "lat": 16.5334, "lon": 104.716886}, "geometry": {"type": "Point", "coordinates": [104.716886, 16.5334]}}, {"type": "Feature", "properties": {"name": "\u0eaa\u0eb0\u0eab\u0ea7\u0eb1\u0e99\u0e99\u0eb0\u0ec0\u0e82\u0e94", "type": "city", "population": 0, "country": "Laos DR", "osm_id": 132718451, "lat": 16.568103, "lon": 104.75875}, "geometry": {"type": "Point", "coordinates": [104.75875, 16.568103]}}, {"type": "Feature", "properties": {"name": "Xepon", "type": "city", "population": 0, "country": "Laos DR", "osm_id": 133417249, "lat": 16.689055, "lon": 106.231583}, "geometry": {"type": "Point", "coordinates": [106.231583, 16.689055]}}, {"type": "Feature", "properties": {"name": "\u0110\u00f4ng H\u00e0", "type": "city", "population": 0, "country": "Vietnam", "osm_id": 369487058, "lat": 16.817239, "lon": 107.101742}, "geometry": {"type": "Point", "coordinates": [107.101742, 16.81724]}}, {"type": "Feature", "properties": {"name": "\u0e1e\u0e34\u0e29\u0e13\u0e38\u0e42\u0e25\u0e01", "type": "city", "population": 0, "country": "Thailand", "osm_id": 114123967, "lat": 16.818956, "lon": 100.256806}, "geometry": {"type": "Point", "coordinates": [100.256806, 16.818956]}}, {"type": "Feature", "properties": {"name": "\u0e15\u0e32\u0e01", "type": "city", "population": 0, "country": "Thailand", "osm_id": 249060596, "lat": 16.871838, "lon": 99.12637}, "geometry": {"type": "Point", "coordinates": [99.12637, 16.871838]}}, {"type": "Feature", "properties": {"name": "\u0e2a\u0e38\u0e42\u0e02\u0e17\u0e31\u0e22", "type": "city", "population": 0, "country": "Thailand", "osm_id": 249060591, "lat": 17.013797, "lon": 99.815686}, "geometry": {"type": "Point", "coordinates": [99.815686, 17.013797]}}, {"type": "Feature", "properties": {"name": "\u0e2a\u0e01\u0e25\u0e19\u0e04\u0e23", "type": "city", "population": 76000, "country": "Thailand", "osm_id": 257905923, "lat": 17.165556, "lon": 104.152227}, "geometry": {"type": "Point", "coordinates": [104.152227, 17.165556]}}, {"type": "Feature", "properties": {"name": "Myanmar", "type": "country", "population": 0, "country": "Myanmar", "osm_id": 249399383, "lat": 17.175, "lon": 96.0}, "geometry": {"type": "Point", "coordinates": [96.0, 17.175]}}, {"type": "Feature", "properties": {"name": "\u0e2b\u0e19\u0e2d\u0e07\u0e1a\u0e31\u0e27\u0e25\u0e33\u0e20\u0e39", "type": "city", "population": 0, "country": "Thailand", "osm_id": 408351677, "lat": 17.207405, "lon": 102.436201}, "geometry": {"type": "Point", "coordinates": [102.436201, 17.207405]}}, {"type": "Feature", "properties": {"name": "\u0e97\u0ec8\u0eb2\u0ec1\u0e82\u0e81", "type": "city", "population": 0, "country": "Laos DR", "osm_id": 133081246, "lat": 17.394618, "lon": 104.806453}, "geometry": {"type": "Point", "coordinates": [104.806453, 17.394618]}}, {"type": "Feature", "properties": {"name": "\u0e2d\u0e38\u0e14\u0e23\u0e18\u0e32\u0e19", "type": "city", "population": 0, "country": "Thailand", "osm_id": 257903167, "lat": 17.398328, "lon": 102.792879}, "geometry": {"type": "Point", "coordinates": [102.792879, 17.398328]}}, {"type": "Feature", "properties": {"name": "\u0110\u1ed3ng H\u1edbi", "type": "city", "population": 0, "country": "Vietnam", "osm_id": 369487094, "lat": 17.469137, "lon": 106.617207}, "geometry": {"type": "Point", "coordinates": [106.617207, 17.469137]}}, {"type": "Feature", "properties": {"name": "\u0e40\u0e25\u0e22", "type": "city", "population": 0, "country": "Thailand", "osm_id": 408089150, "lat": 17.494406, "lon": 101.724416}, "geometry": {"type": "Point", "coordinates": [101.724416, 17.494406]}}, {"type": "Feature", "properties": {"name": "\u0e2d\u0e38\u0e15\u0e23\u0e14\u0e34\u0e15\u0e16\u0e4c", "type": "city", "population": 0, "country": "Thailand", "osm_id": 114123970, "lat": 17.635192, "lon": 100.100232}, "geometry": {"type": "Point", "coordinates": [100.100232, 17.635192]}}, {"type": "Feature", "properties": {"name": "\u0e2b\u0e19\u0e2d\u0e07\u0e04\u0e32\u0e22", "type": "city", "population": 35000, "country": "Thailand", "osm_id": 257903226, "lat": 17.881552, "lon": 102.748042}, "geometry": {"type": "Point", "coordinates": [102.748042, 17.881552]}}, {"type": "Feature", "properties": {"name": "\u0ea7\u0ebd\u0e87\u0e88\u0eb1\u0e99", "type": "city", "population": 200000, "country": "Laos DR", "osm_id": 122739684, "lat": 17.964093, "lon": 102.613379}, "geometry": {"type": "Point", "coordinates": [102.613379, 17.964093]}}, {"type": "Feature", "properties": {"name": "\u0e41\u0e1e\u0e23\u0e48", "type": "city", "population": 0, "country": "Thailand", "osm_id": 409978675, "lat": 18.149559, "lon": 100.13144}, "geometry": {"type": "Point", "coordinates": [100.13144, 18.149559]}}, {"type": "Feature", "properties": {"name": "Laoag City", "type": "city", "population": 0, "country": "Philippines", "osm_id": 317949136, "lat": 18.194866, "lon": 120.593472}, "geometry": {"type": "Point", "coordinates": [120.593472, 18.194866]}}, {"type": "Feature", "properties": {"name": "\u0e25\u0e33\u0e1b\u0e32\u0e07", "type": "city", "population": 60378, "country": "Thailand", "osm_id": 206600521, "lat": 18.300026, "lon": 99.503593}, "geometry": {"type": "Point", "coordinates": [99.503593, 18.300026]}}, {"type": "Feature", "properties": {"name": "H\u00e0 T\u0129nh", "type": "city", "population": 0, "country": "Vietnam", "osm_id": 369487086, "lat": 18.345274, "lon": 105.901948}, "geometry": {"type": "Point", "coordinates": [105.901948, 18.345275]}}, {"type": "Feature", "properties": {"name": "Vinh", "type": "city", "population": 0, "country": "Vietnam", "osm_id": 369487077, "lat": 18.670648, "lon": 105.669335}, "geometry": {"type": "Point", "coordinates": [105.669335, 18.670649]}}, {"type": "Feature", "properties": {"name": "\u0e19\u0e48\u0e32\u0e19", "type": "city", "population": 0, "country": "Thailand", "osm_id": 409968609, "lat": 18.78072, "lon": 100.779881}, "geometry": {"type": "Point", "coordinates": [100.779881, 18.78072]}}, {"type": "Feature", "properties": {"name": "\u0e40\u0e0a\u0e35\u0e22\u0e07\u0e43\u0e2b\u0e21\u0e48", "type": "city", "population": 140000, "country": "Thailand", "osm_id": 178056220, "lat": 18.789139, "lon": 98.985725}, "geometry": {"type": "Point", "coordinates": [98.985725, 18.789139]}}, {"type": "Feature", "properties": {"name": "", "type": "city", "population": 0, "country": "Thailand", "osm_id": 214636798, "lat": 18.858616, "lon": 98.971471}, "geometry": {"type": "Point", "coordinates": [98.971471, 18.858616]}}, {"type": "Feature", "properties": {"name": "\u0e97\u0ec8\u0eb2\u0ec2\u0e97\u0ea1", "type": "city", "population": 0, "country": "Laos DR", "osm_id": 133192553, "lat": 18.9888, "lon": 103.601888}, "geometry": {"type": "Point", "coordinates": [103.601888, 18.9888]}}, {"type": "Feature", "properties": {"name": "\u0e1e\u0e30\u0e40\u0e22\u0e32", "type": "city", "population": 0, "country": "Thailand", "osm_id": 367367305, "lat": 19.166197, "lon": 99.902887}, "geometry": {"type": "Point", "coordinates": [99.902887, 19.166197]}}, {"type": "Feature", "properties": {"name": "Sayaboury", "type": "city", "population": 0, "country": "Laos DR", "osm_id": 300086614, "lat": 19.274334, "lon": 101.710502}, "geometry": {"type": "Point", "coordinates": [101.710502, 19.274335]}}, {"type": "Feature", "properties": {"name": "\u0e41\u0e21\u0e48\u0e2e\u0e48\u0e2d\u0e07\u0e2a\u0e2d\u0e19", "type": "city", "population": 0, "country": "Thailand", "osm_id": 301515447, "lat": 19.290269, "lon": 97.961606}, "geometry": {"type": "Point", "coordinates": [97.961606, 19.290269]}}, {"type": "Feature", "properties": {"name": "Phonsavan", "type": "city", "population": 0, "country": "Laos DR", "osm_id": 133221690, "lat": 19.454856, "lon": 103.186626}, "geometry": {"type": "Point", "coordinates": [103.186626, 19.454856]}}, {"type": "Feature", "properties": {"name": "Thanh H\u00f3a", "type": "city", "population": 0, "country": "Vietnam", "osm_id": 369469617, "lat": 19.811719, "lon": 105.77457}, "geometry": {"type": "Point", "coordinates": [105.77457, 19.811719]}}, {"type": "Feature", "properties": {"name": "\u1014\u1031\u1015\u103c\u100a\u103a\u1010\u1031\u102c", "type": "city", "population": 0, "country": "Myanmar", "osm_id": 315390382, "lat": 19.851591, "lon": 96.305565}, "geometry": {"type": "Point", "coordinates": [96.305565, 19.851591]}}, {"type": "Feature", "properties": {"name": "\u0eab\u0ebc\u0ea7\u0e87\u0e9e\u0eb0\u0e9a\u0eb2\u0e87", "type": "city", "population": 0, "country": "Laos DR", "osm_id": 116056557, "lat": 19.888744, "lon": 102.135898}, "geometry": {"type": "Point", "coordinates": [102.135898, 19.888744]}}, {"type": "Feature", "properties": {"name": "\u0e40\u0e0a\u0e35\u0e22\u0e07\u0e23\u0e32\u0e22", "type": "city", "population": 0, "country": "Thailand", "osm_id": 249246784, "lat": 19.902496, "lon": 99.838733}, "geometry": {"type": "Point", "coordinates": [99.838733, 19.902496]}}, {"type": "Feature", "properties": {"name": "Laos", "type": "country", "population": 0, "country": "Laos DR", "osm_id": 249399366, "lat": 20.01708, "lon": 103.378273}, "geometry": {"type": "Point", "coordinates": [103.378273, 20.01708]}}, {"type": "Feature", "properties": {"name": "Ninh B\u00ecnh", "type": "city", "population": 0, "country": "Vietnam", "osm_id": 369486919, "lat": 20.254542, "lon": 105.976485}, "geometry": {"type": "Point", "coordinates": [105.976485, 20.254542]}}, {"type": "Feature", "properties": {"name": "\u0eab\u0ec9\u0ea7\u0e8d\u0e8a\u0eb2\u0e8d", "type": "city", "population": 0, "country": "Laos DR", "osm_id": 297975116, "lat": 20.278601, "lon": 100.412719}, "geometry": {"type": "Point", "coordinates": [100.412719, 20.278601]}}, {"type": "Feature", "properties": {"name": "Nam \u0110\u1ecbnh", "type": "city", "population": 0, "country": "Vietnam", "osm_id": 369487110, "lat": 20.423033, "lon": 106.168379}, "geometry": {"type": "Point", "coordinates": [106.168379, 20.423033]}}, {"type": "Feature", "properties": {"name": "Th\u00e1i B\u00ecnh", "type": "city", "population": 0, "country": "Vietnam", "osm_id": 369487012, "lat": 20.446573, "lon": 106.334504}, "geometry": {"type": "Point", "coordinates": [106.334504, 20.446573]}}, {"type": "Feature", "properties": {"name": "Tachileik", "type": "city", "population": 0, "country": "Myanmar", "osm_id": 249249716, "lat": 20.449079, "lon": 99.884214}, "geometry": {"type": "Point", "coordinates": [99.884214, 20.449079]}}, {"type": "Feature", "properties": {"name": "Ph\u1ee7 L\u00fd", "type": "city", "population": 0, "country": "Vietnam", "osm_id": 369487036, "lat": 20.544603, "lon": 105.915931}, "geometry": {"type": "Point", "coordinates": [105.915931, 20.544603]}}, {"type": "Feature", "properties": {"name": "H\u01b0ng Y\u00ean", "type": "city", "population": 0, "country": "Vietnam", "osm_id": 369486949, "lat": 20.649098, "lon": 106.050995}, "geometry": {"type": "Point", "coordinates": [106.050995, 20.649098]}}, {"type": "Feature", "properties": {"name": "\u0ead\u0eb8\u0e94\u0ebb\u0ea1\u0ec4\u0e8a", "type": "city", "population": 0, "country": "Laos DR", "osm_id": 127799783, "lat": 20.697431, "lon": 101.983642}, "geometry": {"type": "Point", "coordinates": [101.983642, 20.697431]}}, {"type": "Feature", "properties": {"name": "H\u00f2a B\u00ecnh", "type": "city", "population": 0, "country": "Vietnam", "osm_id": 369487067, "lat": 20.813001, "lon": 105.345297}, "geometry": {"type": "Point", "coordinates": [105.345297, 20.813001]}}, {"type": "Feature", "properties": {"name": "H\u1ea3i Ph\u00f2ng", "type": "city", "population": 0, "country": "Vietnam", "osm_id": 92417297, "lat": 20.847613, "lon": 106.707433}, "geometry": {"type": "Point", "coordinates": [106.707433, 20.847612]}}, {"type": "Feature", "properties": {"name": "H\u1ea3i Ph\u00f2ng", "type": "city", "population": 0, "country": "Vietnam", "osm_id": 369487083, "lat": 20.858864, "lon": 106.674959}, "geometry": {"type": "Point", "coordinates": [106.674959, 20.858864]}}, {"type": "Feature", "properties": {"name": "H\u1ea3i D\u01b0\u01a1ng", "type": "city", "population": 0, "country": "Vietnam", "osm_id": 369487115, "lat": 20.943088, "lon": 106.322539}, "geometry": {"type": "Point", "coordinates": [106.322539, 20.943088]}}, {"type": "Feature", "properties": {"name": "H\u1ea1 Long", "type": "city", "population": 0, "country": "Vietnam", "osm_id": 369487113, "lat": 20.952837, "lon": 107.08}, "geometry": {"type": "Point", "coordinates": [107.08, 20.952836]}}, {"type": "Feature", "properties": {"name": "Hon Gay", "type": "city", "population": 0, "country": "Vietnam", "osm_id": 311548456, "lat": 20.955953, "lon": 107.094619}, "geometry": {"type": "Point", "coordinates": [107.094619, 20.955953]}}, {"type": "Feature", "properties": {"name": "H\u00e0 \u0110\u00f4ng", "type": "city", "population": 0, "country": "Vietnam", "osm_id": 369487042, "lat": 20.974083, "lon": 105.769023}, "geometry": {"type": "Point", "coordinates": [105.769023, 20.974083]}}, {"type": "Feature", "properties": {"name": "\u0eab\u0ebc\u0ea7\u0e87\u0e99\u0ec9\u0eb3\u0e97\u0eb2", "type": "city", "population": 0, "country": "Laos DR", "osm_id": 132714958, "lat": 21.006047, "lon": 101.406511}, "geometry": {"type": "Point", "coordinates": [101.406511, 21.006047]}}, {"type": "Feature", "properties": {"name": "H\u00e0 N\u1ed9i", "type": "city", "population": 0, "country": "Vietnam", "osm_id": 74132064, "lat": 21.033861, "lon": 105.842116}, "geometry": {"type": "Point", "coordinates": [105.842116, 21.033861]}}, {"type": "Feature", "properties": {"name": "B\u1eafc Ninh", "type": "city", "population": 0, "country": "Vietnam", "osm_id": 369487046, "lat": 21.182479, "lon": 106.056427}, "geometry": {"type": "Point", "coordinates": [106.056428, 21.182479]}}, {"type": "Feature", "properties": {"name": "B\u1eafc Giang", "type": "city", "population": 0, "country": "Vietnam", "osm_id": 369487030, "lat": 21.277931, "lon": 106.193881}, "geometry": {"type": "Point", "coordinates": [106.193881, 21.277931]}}, {"type": "Feature", "properties": {"name": "V\u0129nh Y\u00ean", "type": "city", "population": 0, "country": "Vietnam", "osm_id": 369486946, "lat": 21.311236, "lon": 105.593017}, "geometry": {"type": "Point", "coordinates": [105.593016, 21.311236]}}, {"type": "Feature", "properties": {"name": "Vi\u1ec7t Tr\u00ec", "type": "city", "population": 0, "country": "Vietnam", "osm_id": 369486936, "lat": 21.316651, "lon": 105.404883}, "geometry": {"type": "Point", "coordinates": [105.404883, 21.316651]}}, {"type": "Feature", "properties": {"name": "S\u01a1n La", "type": "city", "population": 0, "country": "Vietnam", "osm_id": 369487088, "lat": 21.328264, "lon": 103.900525}, "geometry": {"type": "Point", "coordinates": [103.900525, 21.328264]}}, {"type": "Feature", "properties": {"name": "Th\u00e1i Nguy\u00ean", "type": "city", "population": 0, "country": "Vietnam", "osm_id": 369486983, "lat": 21.592477, "lon": 105.84354}, "geometry": {"type": "Point", "coordinates": [105.84354, 21.592477]}}, {"type": "Feature", "properties": {"name": "\u0e9c\u0ebb\u0ec9\u0e87\u0eaa\u0eb2\u0ea5\u0eb5", "type": "city", "population": 0, "country": "Laos DR", "osm_id": 132724948, "lat": 21.683493, "lon": 102.105662}, "geometry": {"type": "Point", "coordinates": [102.105662, 21.683493]}}, {"type": "Feature", "properties": {"name": "Y\u00ean B\u00e1i", "type": "city", "population": 0, "country": "Vietnam", "osm_id": 369487033, "lat": 21.702619, "lon": 104.871441}, "geometry": {"type": "Point", "coordinates": [104.871441, 21.702619]}}, {"type": "Feature", "properties": {"name": "Tuy\u00ean Quang", "type": "city", "population": 0, "country": "Vietnam", "osm_id": 369486939, "lat": 21.826225, "lon": 105.213283}, "geometry": {"type": "Point", "coordinates": [105.213283, 21.826225]}}, {"type": "Feature", "properties": {"name": "Phong Th\u1ed5", "type": "city", "population": 0, "country": "Vietnam", "osm_id": 369487061, "lat": 22.406, "lon": 103.448925}, "geometry": {"type": "Point", "coordinates": [103.448925, 22.406]}}, {"type": "Feature", "properties": {"name": "L\u00e0o Cai", "type": "city", "population": 0, "country": "Vietnam", "osm_id": 369486930, "lat": 22.494082, "lon": 103.962392}, "geometry": {"type": "Point", "coordinates": [103.962392, 22.494082]}}, {"type": "Feature", "properties": {"name": "Cao B\u1eb1ng", "type": "city", "population": 0, "country": "Vietnam", "osm_id": 369486922, "lat": 22.65566, "lon": 106.26118}, "geometry": {"type": "Point", "coordinates": [106.26118, 22.65566]}}, {"type": "Feature", "properties": {"name": "H\u00e0 Giang", "type": "city", "population": 0, "country": "Vietnam", "osm_id": 369486903, "lat": 22.830565, "lon": 104.974148}, "geometry": {"type": "Point", "coordinates": [104.974148, 22.830565]}}]}